{"type":"FeatureCollection","features":[{"type":"Feature","properties":{"Powiat":"Wrocław","Urząd":"Prezydent Wrocławia","Pactum":"czyta wypisy (sprawdzone na prawdziwych plikach)","fill":"#d9541e","fill-opacity":0.65,"stroke":"#9a3412","stroke-width":1.5},"geometry":{"type":"MultiPolygon","coordinates":[[[[16.8307,51.1118],[16.8365,51.1172],[16.842,51.116],[16.8352,51.1202],[16.8332,51.1243],[16.8171,51.1264],[16.8187,51.1324],[16.8265,51.1413],[16.8135,51.1373],[16.8073,51.1389],[16.8131,51.1503],[16.816,51.15],[16.8173,51.153],[16.8254,51.1515],[16.8311,51.1577],[16.8276,51.1588],[16.8211,51.1718],[16.8264,51.1751],[16.8233,51.1769],[16.8265,51.1822],[16.8357,51.184],[16.855,51.1775],[16.8745,51.1804],[16.8773,51.1856],[16.8822,51.1879],[16.9005,51.1841],[16.9026,51.1882],[16.8887,51.1902],[16.8817,51.2025],[16.8869,51.2058],[16.8933,51.2042],[16.9,51.2091],[16.9051,51.2095],[16.9069,51.2046],[16.9219,51.1967],[16.9491,51.2032],[16.958,51.2094],[16.9698,51.2048],[16.9796,51.2055],[16.9902,51.2029],[17.0009,51.1975],[16.9991,51.1933],[17.0008,51.1915],[16.9999,51.1818],[17.0149,51.1826],[17.0146,51.1876],[17.0225,51.1859],[17.0263,51.1809],[17.0241,51.179],[17.0254,51.1764],[17.0432,51.1733],[17.0654,51.1649],[17.0728,51.1659],[17.0784,51.1628],[17.0801,51.1752],[17.1003,51.1759],[17.1103,51.173],[17.1123,51.1751],[17.1248,51.1707],[17.1294,51.1741],[17.1312,51.1799],[17.1426,51.1804],[17.1421,51.1772],[17.1573,51.1785],[17.1504,51.1444],[17.1369,51.1278],[17.1441,51.1231],[17.1493,51.1237],[17.1609,51.1182],[17.1658,51.1128],[17.1722,51.1115],[17.1761,51.1062],[17.1691,51.1005],[17.1717,51.0963],[17.1649,51.0967],[17.1618,51.0928],[17.1601,51.0945],[17.1622,51.0888],[17.1503,51.0818],[17.1473,51.0833],[17.1302,51.0794],[17.1203,51.0831],[17.1194,51.081],[17.1114,51.0792],[17.1083,51.0753],[17.1096,51.0743],[17.0987,51.0638],[17.1014,51.0613],[17.0958,51.0594],[17.1072,51.0509],[17.1034,51.0453],[17.0857,51.0467],[17.0742,51.054],[17.0722,51.0585],[17.0682,51.0591],[17.0652,51.059],[17.0657,51.0503],[17.06,51.0486],[17.0607,51.0453],[17.0521,51.0461],[17.0507,51.0444],[17.0311,51.05],[17.0279,51.0427],[17.0099,51.0465],[17.0119,51.0542],[17.008,51.0553],[17.0053,51.0557],[16.9998,51.0493],[16.9922,51.0516],[16.9909,51.0577],[16.9869,51.0536],[16.9717,51.0554],[16.9664,51.0491],[16.9645,51.0495],[16.9551,51.0587],[16.9581,51.0674],[16.9395,51.0768],[16.9379,51.082],[16.9229,51.0797],[16.9173,51.0811],[16.923,51.0923],[16.9229,51.0978],[16.9037,51.0969],[16.8897,51.099],[16.8873,51.0934],[16.8768,51.0945],[16.859,51.1003],[16.854,51.1072],[16.8582,51.1121],[16.8519,51.1093],[16.8307,51.1118]]]]}},{"type":"Feature","properties":{"Powiat":"złotoryjski","Urząd":"Starosta Złotoryjski","Pactum":"czyta wypisy (sprawdzone na prawdziwych plikach)","fill":"#d9541e","fill-opacity":0.65,"stroke":"#9a3412","stroke-width":1.5},"geometry":{"type":"MultiPolygon","coordinates":[[[[16.0473,51.1153],[16.0475,51.1102],[16.0444,51.1076],[16.0258,51.1038],[16.0143,51.0822],[16.0107,51.0794],[15.9975,51.0795],[15.9903,51.0731],[15.9819,51.0713],[15.975,51.0774],[15.9713,51.0743],[15.9639,51.0741],[15.9565,51.0694],[15.952,51.0702],[15.9329,51.0612],[15.9367,51.0511],[15.934,51.0431],[15.9418,51.0424],[15.9426,51.0351],[15.9534,51.0314],[15.9512,51.0295],[15.9611,51.0277],[15.9798,51.0189],[15.9791,51.0152],[15.9821,51.0115],[15.9783,51.008],[15.9829,51.0032],[15.984,50.9973],[16.0014,50.9909],[15.9848,50.9714],[15.9858,50.9693],[15.9818,50.9658],[15.9774,50.9541],[15.98,50.9537],[15.9797,50.9514],[15.9605,50.9429],[15.9561,50.9367],[15.9536,50.9366],[15.9558,50.9339],[15.9526,50.9279],[15.9446,50.9246],[15.9451,50.922],[15.9407,50.923],[15.9438,50.9205],[15.9329,50.9236],[15.9267,50.9268],[15.924,50.9224],[15.9242,50.9251],[15.9199,50.9271],[15.9069,50.9271],[15.9011,50.9316],[15.9041,50.9368],[15.8992,50.938],[15.8977,50.9415],[15.8902,50.942],[15.8844,50.9505],[15.879,50.9446],[15.8703,50.9448],[15.8477,50.9358],[15.8381,50.9374],[15.8353,50.9332],[15.8351,50.9387],[15.8282,50.9403],[15.8342,50.9399],[15.8255,50.9477],[15.8245,50.9533],[15.8151,50.9663],[15.8179,50.9693],[15.8158,50.9713],[15.8226,50.9741],[15.822,50.9811],[15.8009,50.9861],[15.7854,50.994],[15.7719,50.9947],[15.7755,50.9958],[15.7739,51.0016],[15.7672,51.0014],[15.7587,51.0054],[15.7617,51.0066],[15.7509,51.007],[15.7371,51.0132],[15.7377,51.0114],[15.7213,51.0206],[15.7319,51.0226],[15.7471,51.0218],[15.7451,51.0236],[15.7458,51.0278],[15.7605,51.0251],[15.7607,51.0344],[15.7655,51.0362],[15.7664,51.039],[15.7629,51.054],[15.7591,51.0543],[15.7561,51.0579],[15.7579,51.0629],[15.7614,51.0647],[15.752,51.0636],[15.7501,51.0771],[15.7474,51.0767],[15.7497,51.0788],[15.7477,51.0824],[15.729,51.0957],[15.7268,51.1034],[15.7199,51.1069],[15.722,51.1173],[15.7198,51.1252],[15.7249,51.1272],[15.724,51.1313],[15.7272,51.1396],[15.7173,51.1489],[15.6983,51.156],[15.6978,51.1593],[15.7115,51.1635],[15.7203,51.1717],[15.7313,51.1699],[15.7396,51.1712],[15.7428,51.1732],[15.7406,51.1785],[15.7513,51.1804],[15.7575,51.1906],[15.7566,51.1953],[15.7606,51.2058],[15.755,51.2105],[15.753,51.2186],[15.7594,51.2196],[15.7613,51.2227],[15.7578,51.2287],[15.7703,51.2318],[15.7799,51.2312],[15.7812,51.234],[15.7793,51.2348],[15.7885,51.2359],[15.7891,51.2386],[15.7931,51.2383],[15.8019,51.2445],[15.8016,51.2472],[15.8049,51.2473],[15.805,51.2504],[15.8034,51.2545],[15.7991,51.2546],[15.8017,51.2557],[15.7983,51.2567],[15.8085,51.2622],[15.8188,51.2592],[15.8314,51.259],[15.8721,51.2475],[15.8837,51.2524],[15.8859,51.2518],[15.8859,51.2481],[15.8931,51.2498],[15.9047,51.2462],[15.9281,51.2319],[15.9145,51.2245],[15.9426,51.2172],[15.9468,51.2133],[15.9511,51.2146],[15.9547,51.2118],[15.9447,51.209],[15.9527,51.2048],[15.9862,51.2041],[15.9962,51.2061],[15.9813,51.2187],[15.9807,51.2214],[15.9977,51.2194],[16.0014,51.2225],[16.0049,51.2213],[16.0092,51.2244],[16.0154,51.2245],[16.0259,51.2212],[16.0376,51.2271],[16.0552,51.2231],[16.0631,51.2173],[16.0519,51.214],[16.0518,51.2101],[16.0553,51.2077],[16.0619,51.1951],[16.0318,51.1768],[16.0325,51.1654],[16.0174,51.1594],[16.0198,51.1553],[16.0275,51.1555],[16.0249,51.1485],[16.0362,51.1433],[16.036,51.1389],[16.0393,51.1379],[16.0371,51.1345],[16.0395,51.1328],[16.038,51.128],[16.0409,51.1248],[16.04,51.122],[16.043,51.1153],[16.0473,51.1153]]]]}},{"type":"Feature","properties":{"Powiat":"wrocławski","Urząd":"Starosta Powiatu Wrocławskiego","Pactum":"czyta wypisy (sprawdzone na prawdziwych plikach)","fill":"#d9541e","fill-opacity":0.65,"stroke":"#9a3412","stroke-width":1.5},"geometry":{"type":"MultiPolygon","coordinates":[[[[17.1003,51.1759],[17.0976,51.1863],[17.0983,51.194],[17.0929,51.1946],[17.094,51.1974],[17.0875,51.2143],[17.0808,51.221],[17.0869,51.2237],[17.0796,51.2236],[17.0728,51.2329],[17.0804,51.2417],[17.0867,51.241],[17.0914,51.2488],[17.1187,51.2433],[17.1245,51.2558],[17.1332,51.2538],[17.1475,51.2439],[17.1454,51.2417],[17.1576,51.2396],[17.1596,51.2435],[17.1732,51.2451],[17.175,51.249],[17.1726,51.2495],[17.1731,51.2521],[17.1783,51.2519],[17.1764,51.2551],[17.1818,51.2756],[17.1939,51.2755],[17.2014,51.2665],[17.2052,51.2711],[17.2103,51.2715],[17.2126,51.2744],[17.2214,51.275],[17.2417,51.2696],[17.2421,51.267],[17.2382,51.2642],[17.2446,51.2629],[17.2611,51.2524],[17.2557,51.2429],[17.251,51.2395],[17.2586,51.2362],[17.2601,51.2326],[17.2657,51.2323],[17.2692,51.2255],[17.2757,51.2236],[17.294,51.2257],[17.3106,51.2148],[17.3104,51.2121],[17.302,51.204],[17.299,51.1955],[17.303,51.1918],[17.2902,51.1739],[17.3059,51.1727],[17.3137,51.1672],[17.3248,51.1702],[17.3475,51.167],[17.3383,51.1655],[17.3266,51.1587],[17.3207,51.1615],[17.3177,51.1589],[17.3035,51.1609],[17.3012,51.1582],[17.2929,51.1592],[17.2948,51.156],[17.291,51.1502],[17.3062,51.1485],[17.3105,51.1377],[17.3167,51.1379],[17.3152,51.1438],[17.3243,51.1451],[17.3307,51.1386],[17.3288,51.1178],[17.3436,51.1125],[17.3665,51.1102],[17.376,51.1037],[17.3611,51.0966],[17.3389,51.0915],[17.3368,51.0875],[17.3259,51.0801],[17.3212,51.064],[17.2961,51.0663],[17.2843,51.0561],[17.2699,51.0516],[17.275,51.0503],[17.2735,51.0482],[17.2945,51.0405],[17.2832,51.0312],[17.2806,51.0315],[17.2815,51.0285],[17.288,51.025],[17.287,51.0213],[17.293,51.018],[17.2887,51.0149],[17.2723,51.0223],[17.2613,51.0306],[17.2499,51.0161],[17.2448,51.0179],[17.2404,51.0132],[17.226,51.0112],[17.2163,51.0053],[17.2062,51.0059],[17.1974,51.0094],[17.1876,50.9994],[17.1677,50.9889],[17.17,50.9865],[17.1631,50.9811],[17.1628,50.971],[17.1601,50.9675],[17.1355,50.9649],[17.1383,50.9576],[17.1151,50.9615],[17.1036,50.9484],[17.1076,50.9388],[17.1153,50.9374],[17.1144,50.9285],[17.1112,50.9257],[17.1118,50.9198],[17.1059,50.9229],[17.0801,50.9258],[17.0754,50.9212],[17.0762,50.9118],[17.0826,50.9071],[17.0834,50.9037],[17.0762,50.9056],[17.0692,50.9031],[17.0558,50.9047],[17.0515,50.917],[17.0415,50.9197],[17.0324,50.9084],[17.0229,50.9085],[17.0179,50.9099],[17.0173,50.9171],[17.0114,50.9204],[17.0034,50.9174],[17.0022,50.9114],[16.9977,50.9096],[16.9971,50.9071],[16.9928,50.9094],[16.9891,50.9157],[16.9832,50.9112],[16.9797,50.9133],[16.9754,50.9081],[16.9792,50.9071],[16.9766,50.9],[16.9671,50.9052],[16.9585,50.9043],[16.9514,50.8914],[16.9573,50.8851],[16.9513,50.8849],[16.9448,50.878],[16.9429,50.8749],[16.9475,50.8698],[16.9423,50.8651],[16.9334,50.8639],[16.923,50.866],[16.9128,50.8713],[16.9015,50.8704],[16.9045,50.8639],[16.9028,50.8544],[16.9212,50.8454],[16.9171,50.8423],[16.9226,50.8378],[16.9153,50.8311],[16.9172,50.8307],[16.9139,50.8257],[16.8994,50.8291],[16.8983,50.819],[16.9032,50.8189],[16.911,50.8138],[16.91,50.8117],[16.8888,50.8097],[16.8872,50.8101],[16.8884,50.8122],[16.887,50.8187],[16.8763,50.8227],[16.8807,50.8292],[16.8763,50.8322],[16.8507,50.8304],[16.8496,50.833],[16.8329,50.8339],[16.8283,50.8321],[16.8293,50.8277],[16.8201,50.8279],[16.8248,50.8224],[16.824,50.82],[16.8185,50.819],[16.8038,50.8216],[16.8062,50.8349],[16.7947,50.8333],[16.7806,50.8356],[16.7739,50.8399],[16.775,50.8445],[16.7532,50.8438],[16.7389,50.8366],[16.7261,50.838],[16.7071,50.845],[16.6971,50.8431],[16.6872,50.8403],[16.6871,50.8502],[16.675,50.8515],[16.6775,50.8715],[16.6716,50.8768],[16.6758,50.8775],[16.674,50.8818],[16.6795,50.8855],[16.6857,50.8855],[16.6841,50.8885],[16.6907,50.8871],[16.6964,50.8893],[16.6975,50.8918],[16.6948,50.8931],[16.6933,50.8982],[16.6956,50.8986],[16.6931,50.8999],[16.6916,50.9059],[16.6975,50.9089],[16.6872,50.9104],[16.6898,50.9165],[16.675,50.917],[16.6798,50.9211],[16.6916,50.9238],[16.7017,50.9299],[16.7004,50.9337],[16.6891,50.9341],[16.6924,50.9367],[16.6902,50.9394],[16.6716,50.9379],[16.6732,50.9348],[16.651,50.9327],[16.6532,50.924],[16.6407,50.9229],[16.618,50.9282],[16.6167,50.9225],[16.606,50.9239],[16.6014,50.9218],[16.6022,50.9194],[16.5924,50.9153],[16.5758,50.9199],[16.5729,50.9229],[16.5759,50.9233],[16.5793,50.9303],[16.5767,50.9328],[16.5812,50.9331],[16.5831,50.9363],[16.5747,50.9367],[16.5756,50.9398],[16.5714,50.9399],[16.5661,50.9514],[16.5842,50.9493],[16.5857,50.9558],[16.5905,50.9582],[16.5817,50.9756],[16.5968,50.9803],[16.6065,50.9735],[16.617,50.9748],[16.615,50.9795],[16.6302,50.9803],[16.6152,50.989],[16.6181,50.9923],[16.616,50.9953],[16.6105,50.9962],[16.6027,51.0018],[16.6075,51.0059],[16.6082,51.0097],[16.6213,51.0129],[16.6326,51.006],[16.6478,51.0073],[16.6521,51.0108],[16.655,51.0103],[16.6581,51.0123],[16.6553,51.0129],[16.6585,51.0185],[16.661,51.0193],[16.6842,51.0159],[16.6826,51.0233],[16.6851,51.0293],[16.6889,51.0316],[16.7102,51.0329],[16.7223,51.0411],[16.7139,51.0492],[16.7199,51.06],[16.7243,51.0633],[16.7388,51.0641],[16.7585,51.055],[16.762,51.0587],[16.7604,51.0645],[16.7689,51.0755],[16.7497,51.0775],[16.7536,51.0842],[16.7531,51.0887],[16.7613,51.088],[16.7842,51.1022],[16.7925,51.1013],[16.7968,51.0998],[16.7945,51.0978],[16.7983,51.0959],[16.811,51.0934],[16.8244,51.1021],[16.8192,51.1058],[16.8307,51.1118],[16.8519,51.1093],[16.8582,51.1121],[16.854,51.1072],[16.859,51.1003],[16.8768,51.0945],[16.8873,51.0934],[16.8897,51.099],[16.9037,51.0969],[16.9229,51.0978],[16.923,51.0923],[16.9173,51.0811],[16.9229,51.0797],[16.9379,51.082],[16.9395,51.0768],[16.9581,51.0674],[16.9551,51.0587],[16.9645,51.0495],[16.9664,51.0491],[16.9717,51.0554],[16.9869,51.0536],[16.9909,51.0577],[16.9922,51.0516],[16.9998,51.0493],[17.0053,51.0557],[17.008,51.0553],[17.0119,51.0542],[17.0099,51.0465],[17.0279,51.0427],[17.0311,51.05],[17.0507,51.0444],[17.0521,51.0461],[17.0607,51.0453],[17.06,51.0486],[17.0657,51.0503],[17.0652,51.059],[17.0682,51.0591],[17.0722,51.0585],[17.0742,51.054],[17.0857,51.0467],[17.1034,51.0453],[17.1072,51.0509],[17.0958,51.0594],[17.1014,51.0613],[17.0987,51.0638],[17.1096,51.0743],[17.1083,51.0753],[17.1114,51.0792],[17.1194,51.081],[17.1203,51.0831],[17.1302,51.0794],[17.1473,51.0833],[17.1503,51.0818],[17.1622,51.0888],[17.1601,51.0945],[17.1618,51.0928],[17.1649,51.0967],[17.1717,51.0963],[17.1691,51.1005],[17.1761,51.1062],[17.1722,51.1115],[17.1658,51.1128],[17.1609,51.1182],[17.1493,51.1237],[17.1441,51.1231],[17.1369,51.1278],[17.1504,51.1444],[17.1573,51.1785],[17.1421,51.1772],[17.1426,51.1804],[17.1312,51.1799],[17.1294,51.1741],[17.1248,51.1707],[17.1123,51.1751],[17.1103,51.173],[17.1003,51.1759]]]]}},{"type":"Feature","properties":{"Powiat":"lubiński","Urząd":"Starosta Lubiński","Pactum":"czyta wypisy (sprawdzone na prawdziwych plikach)","fill":"#d9541e","fill-opacity":0.65,"stroke":"#9a3412","stroke-width":1.5},"geometry":{"type":"MultiPolygon","coordinates":[[[[16.3277,51.5984],[16.3331,51.6014],[16.3384,51.5976],[16.3485,51.5958],[16.3496,51.5995],[16.3555,51.603],[16.3554,51.6092],[16.3643,51.6084],[16.3828,51.6129],[16.39,51.6113],[16.3936,51.6062],[16.3852,51.5996],[16.3896,51.5938],[16.39,51.5865],[16.4018,51.5839],[16.4057,51.5774],[16.4322,51.5757],[16.4473,51.5678],[16.4642,51.5638],[16.4633,51.5595],[16.4526,51.5504],[16.4516,51.542],[16.4623,51.5328],[16.4602,51.5228],[16.477,51.521],[16.4822,51.5161],[16.4739,51.5058],[16.4673,51.5015],[16.454,51.4923],[16.4491,51.4757],[16.4508,51.4659],[16.4384,51.4275],[16.446,51.4199],[16.4431,51.412],[16.4446,51.4076],[16.4572,51.4001],[16.4604,51.3924],[16.4688,51.3829],[16.4709,51.3731],[16.4772,51.3669],[16.4683,51.3614],[16.4668,51.3536],[16.454,51.3464],[16.4534,51.3399],[16.4613,51.328],[16.4608,51.3257],[16.4459,51.3173],[16.4157,51.2937],[16.4103,51.2939],[16.4074,51.2973],[16.408,51.3005],[16.4007,51.2995],[16.3952,51.3019],[16.3862,51.3115],[16.3878,51.3186],[16.3643,51.3223],[16.341,51.3324],[16.3316,51.3256],[16.3344,51.3246],[16.3333,51.3214],[16.3272,51.3178],[16.3389,51.3126],[16.3322,51.3056],[16.3252,51.3064],[16.3084,51.2913],[16.2838,51.2962],[16.2795,51.2902],[16.274,51.2872],[16.2588,51.2836],[16.2338,51.2897],[16.2317,51.2944],[16.2122,51.2954],[16.2109,51.2899],[16.2066,51.2933],[16.2055,51.2892],[16.2015,51.2891],[16.2006,51.2843],[16.1961,51.2838],[16.1955,51.2717],[16.1897,51.2706],[16.1903,51.279],[16.1573,51.2931],[16.1298,51.2932],[16.1287,51.289],[16.1158,51.2874],[16.1075,51.2905],[16.1066,51.2871],[16.0956,51.2864],[16.0932,51.2872],[16.0935,51.2895],[16.0861,51.2904],[16.0844,51.2934],[16.0889,51.2962],[16.0888,51.2985],[16.0805,51.2998],[16.0804,51.3026],[16.0708,51.3024],[16.0689,51.2984],[16.0769,51.2937],[16.07,51.2915],[16.0535,51.3011],[16.0458,51.3008],[16.0339,51.3045],[16.0142,51.3036],[16.0167,51.307],[16.0041,51.3179],[16.0062,51.3243],[16.0138,51.3275],[16.0236,51.3312],[16.0266,51.3363],[16.0367,51.3376],[16.0477,51.3333],[16.0722,51.3363],[16.0799,51.3377],[16.0945,51.3466],[16.0781,51.3473],[16.0719,51.3505],[16.0716,51.3561],[16.0792,51.3632],[16.0799,51.3668],[16.0677,51.3711],[16.0688,51.3736],[16.0662,51.3766],[16.0695,51.3808],[16.0981,51.3837],[16.102,51.3964],[16.1073,51.3974],[16.1086,51.4005],[16.0994,51.4138],[16.0989,51.418],[16.088,51.4166],[16.0753,51.4359],[16.0714,51.4378],[16.073,51.453],[16.075,51.455],[16.0821,51.4568],[16.084,51.4624],[16.0988,51.4662],[16.0973,51.4679],[16.0994,51.4661],[16.1062,51.4681],[16.1137,51.4638],[16.1187,51.4695],[16.1269,51.4717],[16.1366,51.4677],[16.13,51.4628],[16.1344,51.4616],[16.1335,51.4594],[16.1382,51.4598],[16.1377,51.4575],[16.1522,51.4596],[16.1624,51.454],[16.1859,51.4572],[16.1898,51.4655],[16.1963,51.4715],[16.1975,51.4824],[16.2022,51.4846],[16.1958,51.4849],[16.1869,51.4804],[16.1867,51.4784],[16.178,51.4879],[16.1795,51.4995],[16.1864,51.5121],[16.2008,51.5113],[16.2044,51.5149],[16.2016,51.5155],[16.2102,51.5246],[16.2435,51.5221],[16.2509,51.5387],[16.2562,51.5378],[16.2572,51.5435],[16.2702,51.5444],[16.2621,51.5494],[16.2679,51.5519],[16.2607,51.5569],[16.2684,51.566],[16.2794,51.5688],[16.298,51.5678],[16.3212,51.5705],[16.3181,51.5883],[16.3277,51.5984]]]]}},{"type":"Feature","properties":{"Powiat":"bolesławiecki","Urząd":"Starosta Bolesławiecki","Pactum":"czyta wypisy (sprawdzone na prawdziwych plikach)","fill":"#d9541e","fill-opacity":0.65,"stroke":"#9a3412","stroke-width":1.5},"geometry":{"type":"MultiPolygon","coordinates":[[[[15.714,51.5174],[15.7251,51.5174],[15.73,51.5123],[15.7544,51.5131],[15.767,51.5107],[15.767,51.5072],[15.7793,51.5072],[15.7793,51.5024],[15.8075,51.5026],[15.8114,51.4925],[15.8015,51.4909],[15.8017,51.4889],[15.8246,51.4833],[15.8296,51.4758],[15.8454,51.4658],[15.8428,51.4648],[15.8459,51.4616],[15.8584,51.4566],[15.8222,51.4507],[15.8192,51.4442],[15.8193,51.4376],[15.816,51.4296],[15.8185,51.4185],[15.8162,51.4099],[15.8295,51.4042],[15.8282,51.4003],[15.8371,51.3949],[15.8445,51.3948],[15.8503,51.3901],[15.8488,51.3877],[15.8404,51.387],[15.8403,51.3836],[15.8351,51.3816],[15.8356,51.3778],[15.8335,51.3761],[15.8362,51.3742],[15.8328,51.372],[15.837,51.3701],[15.8278,51.3619],[15.8263,51.3531],[15.8161,51.3535],[15.8139,51.3499],[15.8154,51.3466],[15.8128,51.3443],[15.8086,51.3454],[15.795,51.3359],[15.7916,51.3303],[15.7718,51.3194],[15.7711,51.3012],[15.7898,51.2863],[15.7768,51.2871],[15.7777,51.281],[15.7693,51.2789],[15.768,51.2689],[15.7472,51.263],[15.7482,51.2602],[15.7524,51.2588],[15.7424,51.2518],[15.7475,51.2405],[15.7568,51.2318],[15.7527,51.2286],[15.753,51.2186],[15.755,51.2105],[15.7606,51.2058],[15.7566,51.1953],[15.7575,51.1906],[15.7513,51.1804],[15.7406,51.1785],[15.7428,51.1732],[15.7396,51.1712],[15.7313,51.1699],[15.7203,51.1717],[15.7115,51.1635],[15.6978,51.1593],[15.6882,51.1597],[15.6939,51.1625],[15.6844,51.1634],[15.6834,51.1653],[15.68,51.164],[15.6774,51.1678],[15.671,51.168],[15.6651,51.1756],[15.6521,51.1779],[15.6435,51.1844],[15.6113,51.1832],[15.6127,51.1859],[15.5987,51.1868],[15.6003,51.1812],[15.5877,51.1792],[15.5768,51.187],[15.5742,51.1839],[15.5672,51.1841],[15.5647,51.1992],[15.5552,51.1943],[15.542,51.1954],[15.5423,51.1914],[15.5341,51.1878],[15.4966,51.1797],[15.4925,51.1754],[15.479,51.1755],[15.4787,51.1704],[15.4837,51.1666],[15.4837,51.1535],[15.4876,51.1494],[15.4807,51.1425],[15.4795,51.136],[15.456,51.1217],[15.4521,51.1229],[15.4437,51.1187],[15.4437,51.1124],[15.4328,51.114],[15.4282,51.1177],[15.4283,51.1202],[15.4274,51.1228],[15.4324,51.1296],[15.4317,51.1369],[15.4362,51.1389],[15.4264,51.1469],[15.4305,51.1489],[15.4243,51.1503],[15.4219,51.1477],[15.4099,51.1533],[15.3907,51.1564],[15.3851,51.1602],[15.385,51.165],[15.3936,51.176],[15.384,51.1808],[15.378,51.1807],[15.3758,51.1838],[15.3577,51.1885],[15.3402,51.1995],[15.3206,51.1924],[15.3171,51.187],[15.314,51.1882],[15.302,51.1834],[15.2743,51.1952],[15.2702,51.1952],[15.2702,51.1914],[15.2497,51.1885],[15.2323,51.1926],[15.217,51.1931],[15.2208,51.1988],[15.2139,51.2017],[15.2128,51.2105],[15.2091,51.2144],[15.2138,51.2165],[15.2067,51.2204],[15.2126,51.2208],[15.2137,51.2235],[15.2268,51.2294],[15.2416,51.2423],[15.2426,51.2525],[15.24,51.255],[15.2556,51.2601],[15.2517,51.2663],[15.2729,51.2628],[15.2971,51.2684],[15.3101,51.2534],[15.3399,51.2591],[15.326,51.2649],[15.3156,51.2731],[15.2972,51.2794],[15.2966,51.2838],[15.2916,51.2854],[15.2888,51.2922],[15.2908,51.3049],[15.2861,51.3194],[15.2673,51.3163],[15.2663,51.3188],[15.265,51.3229],[15.2679,51.3276],[15.2486,51.3678],[15.2642,51.3685],[15.2687,51.3731],[15.2562,51.399],[15.2964,51.4079],[15.2921,51.4147],[15.2779,51.4251],[15.2755,51.4298],[15.2897,51.4314],[15.2928,51.4231],[15.2983,51.4201],[15.3152,51.4177],[15.3215,51.4084],[15.3337,51.4099],[15.3249,51.4185],[15.3287,51.4229],[15.3284,51.4296],[15.3433,51.4469],[15.3337,51.4516],[15.3394,51.4741],[15.3467,51.4716],[15.3725,51.4697],[15.3821,51.4723],[15.3802,51.4739],[15.3803,51.481],[15.3728,51.4789],[15.3704,51.4805],[15.3693,51.4858],[15.3715,51.4884],[15.367,51.494],[15.3712,51.5079],[15.3824,51.5124],[15.3799,51.5141],[15.3847,51.5184],[15.3856,51.5283],[15.3965,51.531],[15.4058,51.5196],[15.4347,51.525],[15.437,51.5273],[15.4501,51.526],[15.4576,51.5211],[15.4625,51.5223],[15.4706,51.5182],[15.4692,51.5146],[15.4823,51.513],[15.4858,51.5136],[15.4842,51.5224],[15.4883,51.5224],[15.4877,51.5276],[15.5959,51.4696],[15.5903,51.4645],[15.5928,51.4624],[15.5873,51.4602],[15.5867,51.4555],[15.583,51.4558],[15.5809,51.4531],[15.5909,51.4489],[15.5928,51.4521],[15.5971,51.4515],[15.5998,51.4457],[15.6234,51.4635],[15.6241,51.472],[15.6345,51.4721],[15.6347,51.4789],[15.6459,51.4791],[15.647,51.476],[15.656,51.4724],[15.6642,51.4827],[15.6593,51.488],[15.6673,51.4889],[15.6676,51.499],[15.6731,51.4989],[15.6733,51.5057],[15.6788,51.5056],[15.6789,51.5124],[15.701,51.5125],[15.7006,51.5174],[15.714,51.5174]]]]}},{"type":"Feature","properties":{"Powiat":"Wałbrzych","Urząd":"Prezydent Miasta Wałbrzycha","Pactum":"czyta wypisy (sprawdzone na prawdziwych plikach)","fill":"#d9541e","fill-opacity":0.65,"stroke":"#9a3412","stroke-width":1.5},"geometry":{"type":"MultiPolygon","coordinates":[[[[16.2723,50.854],[16.2804,50.8476],[16.2873,50.8481],[16.2906,50.8457],[16.2915,50.8483],[16.2999,50.8496],[16.3126,50.8449],[16.3135,50.8423],[16.319,50.8453],[16.3273,50.8394],[16.3421,50.8385],[16.3476,50.8341],[16.3546,50.8221],[16.3476,50.8214],[16.3341,50.8139],[16.3322,50.8105],[16.3553,50.796],[16.3507,50.7932],[16.3401,50.7899],[16.3276,50.7804],[16.346,50.7666],[16.3378,50.7644],[16.3394,50.7611],[16.3371,50.7593],[16.339,50.7575],[16.3289,50.7509],[16.3265,50.745],[16.3178,50.7413],[16.313,50.7437],[16.3086,50.7417],[16.3067,50.7344],[16.3038,50.7331],[16.3043,50.7238],[16.2703,50.7199],[16.2636,50.718],[16.2641,50.7161],[16.2568,50.7253],[16.2507,50.7277],[16.2554,50.7335],[16.2553,50.7421],[16.2387,50.7444],[16.2349,50.7492],[16.2276,50.7509],[16.2309,50.7545],[16.2277,50.761],[16.2327,50.766],[16.2305,50.7663],[16.2338,50.7712],[16.2288,50.7728],[16.2294,50.7778],[16.2352,50.7879],[16.2396,50.7894],[16.2303,50.7906],[16.2311,50.7988],[16.2381,50.8003],[16.2364,50.7982],[16.2403,50.7955],[16.2595,50.798],[16.2694,50.7904],[16.2777,50.7909],[16.2797,50.7932],[16.2803,50.7978],[16.2715,50.8001],[16.2639,50.807],[16.2769,50.8168],[16.2639,50.8214],[16.247,50.8236],[16.2597,50.8355],[16.2494,50.8381],[16.2527,50.8407],[16.2509,50.8443],[16.2555,50.846],[16.2524,50.8479],[16.2723,50.854]]]]}},{"type":"Feature","properties":{"Powiat":"Szczecin","Urząd":"Prezydent Miasta Szczecin","Pactum":"czyta wypisy (sprawdzone na prawdziwych plikach)","fill":"#d9541e","fill-opacity":0.65,"stroke":"#9a3412","stroke-width":1.5},"geometry":{"type":"MultiPolygon","coordinates":[[[[14.778,53.403],[14.7837,53.4021],[14.7911,53.3961],[14.7663,53.3834],[14.7748,53.3821],[14.7751,53.3769],[14.7636,53.3767],[14.7632,53.3824],[14.7588,53.3832],[14.732,53.3726],[14.7354,53.3721],[14.7372,53.3689],[14.7411,53.3694],[14.7595,53.3616],[14.7586,53.3575],[14.7693,53.345],[14.7734,53.345],[14.7772,53.3499],[14.788,53.3506],[14.7887,53.3475],[14.7836,53.3458],[14.7865,53.3439],[14.7917,53.3452],[14.7935,53.3398],[14.8046,53.3343],[14.8038,53.3274],[14.8009,53.3258],[14.7995,53.331],[14.7828,53.3379],[14.7758,53.3381],[14.7689,53.3432],[14.7615,53.3405],[14.7558,53.3424],[14.7574,53.34],[14.7547,53.3369],[14.7564,53.3355],[14.7587,53.3394],[14.7633,53.3374],[14.7628,53.334],[14.7648,53.3368],[14.7697,53.3346],[14.7678,53.3303],[14.758,53.328],[14.7463,53.3292],[14.7395,53.3347],[14.735,53.3342],[14.7351,53.3365],[14.7273,53.3365],[14.7244,53.3381],[14.7224,53.3441],[14.7142,53.3432],[14.716,53.3444],[14.7134,53.3463],[14.7163,53.3485],[14.722,53.3484],[14.7153,53.3496],[14.716,53.3521],[14.7072,53.35],[14.7186,53.3565],[14.7215,53.3595],[14.7192,53.3624],[14.7029,53.3597],[14.6913,53.3612],[14.6939,53.3588],[14.692,53.3563],[14.6782,53.3529],[14.6612,53.3574],[14.6584,53.3618],[14.6421,53.3648],[14.6355,53.3634],[14.635,53.3657],[14.629,53.3661],[14.6182,53.362],[14.6172,53.3575],[14.621,53.3572],[14.6196,53.3538],[14.6058,53.3547],[14.5993,53.3477],[14.5918,53.3443],[14.5902,53.3399],[14.5935,53.3365],[14.5751,53.3335],[14.5846,53.3241],[14.5709,53.3238],[14.5712,53.3222],[14.5648,53.3291],[14.5308,53.3336],[14.5545,53.3545],[14.5606,53.3594],[14.5778,53.3621],[14.5864,53.3671],[14.5743,53.3714],[14.5595,53.3714],[14.5437,53.3755],[14.5388,53.3752],[14.5374,53.372],[14.5329,53.3735],[14.5356,53.3824],[14.4918,53.3936],[14.4862,53.3909],[14.479,53.394],[14.4815,53.3956],[14.4806,53.3976],[14.4684,53.4009],[14.4714,53.4016],[14.4724,53.4059],[14.4845,53.4072],[14.4845,53.4172],[14.4809,53.4177],[14.4773,53.4147],[14.4772,53.4173],[14.4691,53.4177],[14.4749,53.4269],[14.4793,53.4272],[14.483,53.4365],[14.4459,53.4442],[14.4488,53.4482],[14.4632,53.4461],[14.4653,53.4502],[14.473,53.4498],[14.4727,53.4522],[14.4684,53.4533],[14.4707,53.455],[14.4615,53.4565],[14.4629,53.4611],[14.4703,53.461],[14.4586,53.4726],[14.4606,53.4764],[14.4439,53.4848],[14.4494,53.4948],[14.4438,53.4954],[14.4645,53.497],[14.4681,53.4929],[14.4788,53.4957],[14.4812,53.4914],[14.491,53.4943],[14.4918,53.4924],[14.502,53.4907],[14.5083,53.4921],[14.5076,53.4958],[14.5311,53.4954],[14.5382,53.4963],[14.5398,53.4989],[14.5414,53.4952],[14.5454,53.4943],[14.5422,53.4924],[14.5503,53.4935],[14.5541,53.4988],[14.5626,53.4973],[14.567,53.5006],[14.5706,53.4993],[14.587,53.5052],[14.5844,53.5052],[14.5802,53.5131],[14.5813,53.5177],[14.5736,53.5206],[14.574,53.5233],[14.5683,53.5199],[14.5687,53.5219],[14.5547,53.5257],[14.5543,53.5325],[14.5705,53.5377],[14.5721,53.5366],[14.57,53.5339],[14.5724,53.5329],[14.5785,53.5358],[14.5871,53.5324],[14.5907,53.5339],[14.595,53.5308],[14.6052,53.5353],[14.6026,53.5362],[14.6041,53.5371],[14.6283,53.5328],[14.6353,53.5339],[14.6374,53.533],[14.637,53.5268],[14.6426,53.5253],[14.6515,53.5277],[14.6563,53.5315],[14.6544,53.5338],[14.6586,53.536],[14.6775,53.5361],[14.6828,53.531],[14.6801,53.5292],[14.6815,53.5249],[14.6781,53.524],[14.6814,53.5214],[14.6782,53.5195],[14.6798,53.5129],[14.6873,53.5106],[14.693,53.5116],[14.6999,53.5077],[14.702,53.5044],[14.6996,53.4978],[14.7008,53.4946],[14.6942,53.4917],[14.6942,53.4873],[14.6981,53.4857],[14.6955,53.4818],[14.6992,53.4801],[14.6934,53.4772],[14.6959,53.4718],[14.6913,53.472],[14.691,53.4703],[14.6973,53.4682],[14.7037,53.4696],[14.7104,53.463],[14.7076,53.4555],[14.712,53.4496],[14.7057,53.4441],[14.7004,53.435],[14.7087,53.4265],[14.7134,53.4293],[14.7199,53.4277],[14.7307,53.4351],[14.7361,53.4349],[14.7412,53.4401],[14.7435,53.4397],[14.7458,53.444],[14.762,53.4412],[14.747,53.4317],[14.7526,53.4258],[14.7169,53.4127],[14.72,53.4075],[14.7373,53.4042],[14.7664,53.407],[14.7697,53.404],[14.7711,53.4056],[14.778,53.403]]]]}},{"type":"Feature","properties":{"Powiat":"ząbkowicki","Urząd":"Starosta Ząbkowicki","Pactum":"czyta wypisy (sprawdzone na prawdziwych plikach)","fill":"#d9541e","fill-opacity":0.65,"stroke":"#9a3412","stroke-width":1.5},"geometry":{"type":"MultiPolygon","coordinates":[[[[17.1649,50.6135],[17.1219,50.6075],[17.1149,50.5874],[17.1113,50.5868],[17.0992,50.5759],[17.0941,50.5644],[17.0757,50.556],[17.0687,50.5445],[17.0637,50.5423],[17.0613,50.5369],[17.0629,50.5302],[17.0743,50.5226],[17.0748,50.5171],[17.0738,50.5145],[17.0661,50.5124],[17.0567,50.5049],[17.0575,50.5003],[17.0626,50.497],[17.0588,50.4917],[17.0643,50.4889],[17.0587,50.485],[17.0621,50.4839],[17.0624,50.4811],[17.0602,50.4808],[17.0627,50.4797],[17.0626,50.4766],[17.0546,50.4757],[17.0509,50.4716],[17.055,50.4692],[17.0516,50.4654],[17.0409,50.4632],[17.0263,50.4663],[17.0192,50.4651],[17.0166,50.4685],[17.0251,50.4708],[17.0173,50.4736],[17.0201,50.4803],[17.0073,50.4794],[17.006,50.4744],[16.9975,50.4778],[16.9928,50.4749],[16.9859,50.4765],[16.9823,50.4738],[16.976,50.4756],[16.9805,50.4824],[16.9763,50.4821],[16.9774,50.4841],[16.9739,50.4891],[16.9701,50.4882],[16.9709,50.4849],[16.9683,50.4844],[16.9652,50.4881],[16.959,50.4878],[16.9474,50.4802],[16.9418,50.4681],[16.945,50.468],[16.9403,50.4611],[16.9144,50.4498],[16.9079,50.4494],[16.8985,50.4477],[16.8932,50.4434],[16.881,50.4423],[16.8807,50.4362],[16.8757,50.4328],[16.8756,50.4279],[16.8692,50.4225],[16.8696,50.4171],[16.8605,50.4112],[16.8603,50.4077],[16.8529,50.4063],[16.8505,50.4009],[16.8464,50.3994],[16.8391,50.4],[16.8313,50.3974],[16.8196,50.4006],[16.813,50.3982],[16.8084,50.3998],[16.7974,50.4106],[16.7924,50.4239],[16.7674,50.4256],[16.7613,50.4352],[16.7616,50.4397],[16.7567,50.4445],[16.758,50.4476],[16.7553,50.4505],[16.7571,50.4539],[16.7361,50.4778],[16.7284,50.4753],[16.7079,50.4764],[16.6947,50.4823],[16.702,50.483],[16.703,50.4887],[16.7003,50.4968],[16.6899,50.5021],[16.6859,50.5115],[16.6876,50.5124],[16.6838,50.5156],[16.6751,50.5165],[16.6778,50.5246],[16.6737,50.5259],[16.6796,50.5322],[16.6864,50.532],[16.6855,50.5372],[16.652,50.5491],[16.642,50.5497],[16.6419,50.5522],[16.6346,50.5587],[16.6264,50.5614],[16.6306,50.5678],[16.6358,50.5702],[16.6354,50.573],[16.6293,50.5745],[16.6236,50.581],[16.6059,50.5884],[16.5988,50.5989],[16.5969,50.613],[16.5876,50.6179],[16.5883,50.6251],[16.5831,50.6283],[16.5795,50.6323],[16.5803,50.6354],[16.5876,50.638],[16.5906,50.6439],[16.594,50.6452],[16.6149,50.625],[16.6441,50.6341],[16.6704,50.6465],[16.6728,50.6427],[16.6861,50.6443],[16.7024,50.6408],[16.7035,50.6485],[16.7003,50.6547],[16.7008,50.6598],[16.7046,50.6619],[16.7153,50.6618],[16.7138,50.6647],[16.7264,50.6675],[16.7503,50.6633],[16.7656,50.6631],[16.7682,50.6623],[16.7658,50.6598],[16.7728,50.6584],[16.778,50.6596],[16.7776,50.6629],[16.7824,50.6667],[16.7956,50.6699],[16.8003,50.6693],[16.7971,50.6601],[16.8057,50.6602],[16.8216,50.6672],[16.8235,50.6704],[16.8379,50.6716],[16.8492,50.6784],[16.8676,50.6772],[16.8762,50.686],[16.8757,50.6918],[16.8799,50.6916],[16.8808,50.6981],[16.8765,50.701],[16.8818,50.7091],[16.8892,50.7068],[16.8953,50.709],[16.9012,50.7062],[16.9139,50.711],[16.9149,50.7159],[16.9226,50.715],[16.9224,50.7095],[16.9375,50.7064],[16.9395,50.6998],[16.9446,50.6996],[16.9442,50.7029],[16.9486,50.7023],[16.958,50.6933],[16.9754,50.6901],[16.9754,50.6851],[16.9821,50.6877],[16.9806,50.6936],[17.0051,50.696],[17.0246,50.6922],[17.0279,50.6965],[17.042,50.6958],[17.0445,50.7008],[17.0548,50.6979],[17.0577,50.6933],[17.0648,50.6936],[17.0709,50.6847],[17.0687,50.6804],[17.0944,50.6747],[17.0931,50.6736],[17.1191,50.672],[17.1241,50.6678],[17.1221,50.6673],[17.1226,50.6631],[17.1457,50.6627],[17.1373,50.6529],[17.1274,50.6506],[17.1203,50.6441],[17.1323,50.6424],[17.1369,50.6356],[17.1464,50.631],[17.1519,50.6317],[17.1595,50.6176],[17.1638,50.6181],[17.1649,50.6135]]]]}},{"type":"Feature","properties":{"Powiat":"koszaliński","Urząd":"Starosta Koszaliński","Pactum":"czyta wypisy (sprawdzone na prawdziwych plikach)","fill":"#d9541e","fill-opacity":0.65,"stroke":"#9a3412","stroke-width":1.5},"geometry":{"type":"MultiPolygon","coordinates":[[[[16.7317,54.2319],[16.7293,54.2303],[16.7292,54.2256],[16.7169,54.2196],[16.715,54.217],[16.7167,54.2163],[16.7114,54.2139],[16.7196,54.2093],[16.7197,54.2024],[16.7327,54.2037],[16.7357,54.1886],[16.7351,54.1846],[16.7287,54.1841],[16.731,54.1784],[16.7489,54.1727],[16.7573,54.161],[16.7568,54.1578],[16.7743,54.1551],[16.7775,54.1364],[16.7747,54.1336],[16.78,54.134],[16.7841,54.1312],[16.7814,54.1278],[16.7773,54.1273],[16.7797,54.1241],[16.779,54.1192],[16.793,54.1212],[16.8046,54.1161],[16.801,54.1055],[16.7988,54.1051],[16.7993,54.1014],[16.7935,54.1009],[16.7949,54.0901],[16.7933,54.0845],[16.7923,54.0792],[16.7967,54.0792],[16.7937,54.0756],[16.7983,54.0755],[16.8035,54.0789],[16.8053,54.0756],[16.8126,54.0731],[16.809,54.0706],[16.8084,54.0662],[16.8113,54.0604],[16.8066,54.0565],[16.797,54.0547],[16.7946,54.0496],[16.7976,54.0353],[16.7859,54.0285],[16.7831,54.0241],[16.7883,54.0133],[16.7901,54.013],[16.7899,54.0159],[16.7926,54.0119],[16.7998,54.011],[16.7895,54.0108],[16.8014,54.004],[16.7996,54.0025],[16.8011,53.9997],[16.7957,53.9954],[16.798,53.987],[16.7928,53.9856],[16.7876,53.99],[16.7691,53.988],[16.7606,53.9927],[16.7616,53.9894],[16.7583,53.9887],[16.7631,53.9854],[16.7592,53.9851],[16.7589,53.9775],[16.7509,53.976],[16.7558,53.9748],[16.7556,53.9723],[16.7623,53.9662],[16.7374,53.9581],[16.732,53.9613],[16.7189,53.9534],[16.6903,53.9499],[16.7111,53.9365],[16.7145,53.9386],[16.7273,53.9233],[16.7101,53.9188],[16.71,53.9136],[16.7171,53.9073],[16.7168,53.9048],[16.7362,53.8973],[16.7371,53.8937],[16.7331,53.8903],[16.7274,53.8917],[16.7215,53.8893],[16.6997,53.8919],[16.6807,53.8894],[16.6737,53.8966],[16.6725,53.9013],[16.6635,53.9092],[16.6521,53.9066],[16.6535,53.9029],[16.6341,53.8995],[16.6211,53.9006],[16.6158,53.9064],[16.594,53.9039],[16.5908,53.8992],[16.5944,53.8974],[16.587,53.8961],[16.5884,53.8918],[16.5804,53.8903],[16.5807,53.8879],[16.5768,53.8854],[16.5582,53.8941],[16.5351,53.8884],[16.5331,53.8978],[16.525,53.9027],[16.4993,53.9078],[16.4778,53.9098],[16.4491,53.9029],[16.4405,53.9042],[16.4434,53.9118],[16.4421,53.9161],[16.4471,53.9227],[16.4338,53.9243],[16.4473,53.9289],[16.4446,53.93],[16.4462,53.9315],[16.4448,53.9339],[16.4485,53.9379],[16.4427,53.9392],[16.445,53.9419],[16.4438,53.9494],[16.457,53.9515],[16.4413,53.9588],[16.4283,53.9614],[16.4308,53.9671],[16.4169,53.9709],[16.4019,53.9742],[16.3926,53.9685],[16.3829,53.9687],[16.3775,53.9737],[16.3725,53.9736],[16.369,53.9797],[16.365,53.9803],[16.3692,53.9855],[16.3645,53.9871],[16.3541,53.9858],[16.3579,53.981],[16.3456,53.98],[16.3278,53.9842],[16.3316,53.9867],[16.3285,53.9884],[16.3301,53.9903],[16.3268,53.9908],[16.3306,53.9955],[16.3301,53.9982],[16.3355,53.9992],[16.3366,54.0026],[16.3488,54.012],[16.2862,54.0199],[16.2707,54.0269],[16.2626,54.0254],[16.2597,54.027],[16.259,54.0217],[16.2451,54.022],[16.2342,54.016],[16.2311,54.0195],[16.2332,54.0214],[16.2309,54.0219],[16.2345,54.023],[16.2298,54.0258],[16.1965,54.035],[16.1879,54.0426],[16.1826,54.0408],[16.184,54.0387],[16.1804,54.0374],[16.1766,54.0398],[16.1783,54.0425],[16.1441,54.0495],[16.1337,54.0569],[16.1224,54.058],[16.1106,54.0699],[16.106,54.0716],[16.1053,54.0785],[16.102,54.0824],[16.0863,54.0857],[16.0851,54.0915],[16.0905,54.0981],[16.086,54.1011],[16.0834,54.1066],[16.0768,54.1113],[16.0628,54.1152],[16.0555,54.1145],[16.0532,54.1064],[16.0492,54.1064],[16.0577,54.1031],[16.0584,54.0983],[16.0549,54.0952],[16.0315,54.0896],[16.0026,54.0734],[15.988,54.0808],[15.9764,54.0732],[15.9576,54.0724],[15.9523,54.0666],[15.9489,54.0682],[15.9462,54.0655],[15.9371,54.0707],[15.943,54.0732],[15.9397,54.0761],[15.9105,54.0766],[15.9095,54.089],[15.9179,54.0963],[15.9324,54.1004],[15.9359,54.1063],[15.9128,54.126],[15.9221,54.1348],[15.9176,54.1362],[15.9171,54.1391],[15.8923,54.1413],[15.8802,54.1457],[15.8472,54.1472],[15.8442,54.1508],[15.8374,54.1513],[15.8408,54.1618],[15.837,54.1618],[15.8348,54.165],[15.8196,54.1667],[15.8185,54.1734],[15.8131,54.1798],[15.8057,54.1835],[15.8047,54.1856],[15.8076,54.19],[15.804,54.1926],[15.8087,54.1985],[15.8136,54.1987],[15.8184,54.2043],[15.7925,54.2041],[15.8051,54.2207],[15.792,54.2272],[15.855,54.2421],[15.974,54.2513],[16.0571,54.2638],[16.1024,54.2744],[16.1511,54.2909],[16.2142,54.3207],[16.2156,54.3193],[16.2218,54.324],[16.2235,54.3229],[16.222,54.32],[16.2298,54.3156],[16.2335,54.3154],[16.2298,54.3177],[16.2315,54.3191],[16.2516,54.3148],[16.2576,54.317],[16.2597,54.3203],[16.2594,54.3306],[16.2799,54.334],[16.28,54.3322],[16.2926,54.3283],[16.2906,54.324],[16.2989,54.3195],[16.319,54.3211],[16.3259,54.3131],[16.3286,54.2994],[16.3356,54.2873],[16.3411,54.2876],[16.3465,54.2828],[16.3895,54.2896],[16.3947,54.2923],[16.3931,54.2992],[16.3979,54.2992],[16.3966,54.3034],[16.4005,54.3061],[16.3975,54.3086],[16.4053,54.3106],[16.4132,54.3023],[16.4278,54.3001],[16.4265,54.2975],[16.409,54.3006],[16.4075,54.299],[16.4125,54.2924],[16.4224,54.2908],[16.4231,54.284],[16.4121,54.2809],[16.4121,54.2758],[16.4074,54.2753],[16.4078,54.27],[16.4014,54.2703],[16.4011,54.2656],[16.3983,54.264],[16.4006,54.2602],[16.3964,54.2594],[16.395,54.2561],[16.4456,54.2486],[16.4434,54.2385],[16.4278,54.2329],[16.4129,54.2165],[16.438,54.2126],[16.4523,54.2185],[16.4647,54.219],[16.465,54.2215],[16.4875,54.2239],[16.492,54.2214],[16.4982,54.2248],[16.4976,54.2374],[16.4956,54.2391],[16.509,54.2401],[16.5307,54.2375],[16.5566,54.2265],[16.5688,54.2269],[16.5682,54.2241],[16.5711,54.2241],[16.5688,54.2233],[16.5713,54.2187],[16.5584,54.2174],[16.5582,54.2098],[16.5529,54.2112],[16.5509,54.2094],[16.5521,54.204],[16.5468,54.2051],[16.5409,54.1978],[16.5355,54.1978],[16.5466,54.1909],[16.562,54.1927],[16.5649,54.1924],[16.5652,54.189],[16.5801,54.1895],[16.6056,54.1931],[16.6072,54.2005],[16.6121,54.2045],[16.6061,54.2072],[16.6048,54.2113],[16.6135,54.2177],[16.6163,54.223],[16.6396,54.2256],[16.6389,54.2189],[16.6634,54.2183],[16.6644,54.2084],[16.6677,54.2078],[16.6829,54.2144],[16.6925,54.2129],[16.7017,54.2152],[16.6965,54.2271],[16.702,54.2337],[16.7087,54.2372],[16.7105,54.242],[16.7264,54.2401],[16.727,54.2354],[16.7317,54.2319]],[[16.1099,54.2217],[16.1148,54.2169],[16.1115,54.2129],[16.1157,54.2093],[16.1144,54.2041],[16.1165,54.2003],[16.1251,54.1969],[16.1375,54.1775],[16.1353,54.1769],[16.1368,54.1736],[16.1493,54.1796],[16.161,54.1713],[16.1646,54.162],[16.1668,54.1633],[16.1769,54.1564],[16.1929,54.1522],[16.1876,54.1491],[16.1876,54.1461],[16.1805,54.1374],[16.1899,54.1393],[16.2002,54.1377],[16.2212,54.1432],[16.2174,54.1544],[16.1994,54.1606],[16.2091,54.1667],[16.2142,54.1652],[16.224,54.1678],[16.2405,54.1658],[16.2612,54.1584],[16.2825,54.1661],[16.2901,54.1587],[16.2965,54.1591],[16.3,54.156],[16.3044,54.1575],[16.2918,54.1662],[16.2923,54.173],[16.2871,54.1785],[16.2944,54.1829],[16.3007,54.1831],[16.299,54.1881],[16.3018,54.1887],[16.3011,54.1907],[16.3122,54.1903],[16.3176,54.1935],[16.3232,54.2016],[16.3201,54.2072],[16.3126,54.2096],[16.3087,54.2143],[16.2987,54.2195],[16.2827,54.2132],[16.2812,54.2171],[16.2762,54.2195],[16.2769,54.2213],[16.267,54.2217],[16.265,54.2192],[16.247,54.2254],[16.2272,54.2244],[16.2268,54.2264],[16.221,54.2257],[16.2167,54.229],[16.2053,54.22],[16.1928,54.2154],[16.1802,54.2304],[16.1904,54.2292],[16.1868,54.2344],[16.1962,54.2359],[16.1929,54.2392],[16.1965,54.2424],[16.2058,54.2426],[16.2076,54.2449],[16.2047,54.2457],[16.204,54.2505],[16.1959,54.2577],[16.1922,54.2729],[16.1768,54.277],[16.1687,54.2748],[16.172,54.2707],[16.1701,54.2618],[16.1533,54.2572],[16.1391,54.2477],[16.1335,54.2475],[16.1324,54.2502],[16.1285,54.2419],[16.1367,54.2336],[16.1297,54.2352],[16.1191,54.227],[16.1154,54.2282],[16.1156,54.2251],[16.1122,54.2251],[16.1099,54.2217]]]]}},{"type":"Feature","properties":{"Powiat":"polkowicki","Urząd":"Starosta Polkowicki","Pactum":"czyta wypisy (sprawdzone na prawdziwych plikach)","fill":"#d9541e","fill-opacity":0.65,"stroke":"#9a3412","stroke-width":1.5},"geometry":{"type":"MultiPolygon","coordinates":[[[[15.714,51.5174],[15.7141,51.5216],[15.7107,51.5235],[15.7123,51.5465],[15.7032,51.5464],[15.7028,51.5519],[15.7064,51.5545],[15.7038,51.5569],[15.7236,51.5521],[15.7425,51.5557],[15.7695,51.5696],[15.8077,51.5734],[15.8236,51.5727],[15.8158,51.6029],[15.8216,51.6072],[15.8228,51.6131],[15.834,51.6222],[15.8304,51.6368],[15.836,51.6436],[15.8572,51.6504],[15.8545,51.6589],[15.8428,51.6613],[15.8497,51.6652],[15.8678,51.6734],[15.8742,51.6721],[15.8683,51.67],[15.881,51.671],[15.8817,51.6684],[15.8955,51.6721],[15.9211,51.6693],[15.9226,51.6655],[15.9208,51.6606],[15.9331,51.6631],[15.9319,51.6567],[15.9358,51.6568],[15.9364,51.6493],[15.9487,51.6477],[15.9385,51.64],[15.9625,51.6385],[15.9627,51.6349],[15.9656,51.636],[15.9645,51.6338],[15.9679,51.6334],[15.9672,51.6293],[15.972,51.6249],[15.9674,51.6227],[15.9698,51.6213],[15.9692,51.6183],[15.9578,51.6138],[15.9757,51.6096],[15.9833,51.6141],[15.9929,51.6119],[15.9989,51.6156],[16.0099,51.613],[16.0134,51.6077],[16.019,51.6083],[16.014,51.5978],[16.0009,51.5868],[15.9909,51.5736],[15.9851,51.5613],[15.9753,51.5581],[15.971,51.5525],[15.9634,51.55],[15.9626,51.5459],[15.9819,51.5473],[15.9883,51.5413],[15.9986,51.5379],[16.0026,51.5379],[16.0206,51.5561],[16.0298,51.5592],[16.0332,51.5598],[16.0417,51.5537],[16.0449,51.5569],[16.0697,51.5562],[16.0756,51.563],[16.0947,51.5608],[16.0964,51.5639],[16.0845,51.5743],[16.0854,51.58],[16.0875,51.5835],[16.0953,51.5843],[16.0955,51.5887],[16.0985,51.5908],[16.1038,51.5891],[16.1067,51.5906],[16.0946,51.594],[16.096,51.6003],[16.0818,51.6018],[16.082,51.6043],[16.0868,51.6112],[16.0992,51.6146],[16.1067,51.6126],[16.1126,51.6076],[16.1178,51.6109],[16.1305,51.6092],[16.1346,51.6124],[16.1431,51.6117],[16.1421,51.6169],[16.1706,51.6174],[16.1787,51.6114],[16.1854,51.613],[16.184,51.6174],[16.1929,51.6167],[16.1964,51.6191],[16.1867,51.6296],[16.1931,51.6269],[16.2037,51.6267],[16.2045,51.6317],[16.2138,51.6343],[16.2268,51.6232],[16.2346,51.622],[16.2364,51.6206],[16.2311,51.6201],[16.2384,51.6168],[16.25,51.6167],[16.2544,51.6141],[16.2606,51.6162],[16.2825,51.6106],[16.2845,51.6125],[16.2942,51.6111],[16.2965,51.6134],[16.3037,51.613],[16.3115,51.6067],[16.3169,51.6059],[16.3152,51.6012],[16.3277,51.5984],[16.3181,51.5883],[16.3212,51.5705],[16.298,51.5678],[16.2794,51.5688],[16.2684,51.566],[16.2607,51.5569],[16.2679,51.5519],[16.2621,51.5494],[16.2702,51.5444],[16.2572,51.5435],[16.2562,51.5378],[16.2509,51.5387],[16.2435,51.5221],[16.2102,51.5246],[16.2016,51.5155],[16.2044,51.5149],[16.2008,51.5113],[16.1864,51.5121],[16.1795,51.4995],[16.178,51.4879],[16.1867,51.4784],[16.1869,51.4804],[16.1958,51.4849],[16.2022,51.4846],[16.1975,51.4824],[16.1963,51.4715],[16.1898,51.4655],[16.1859,51.4572],[16.1624,51.454],[16.1522,51.4596],[16.1377,51.4575],[16.1382,51.4598],[16.1335,51.4594],[16.1344,51.4616],[16.13,51.4628],[16.1366,51.4677],[16.1269,51.4717],[16.1187,51.4695],[16.1137,51.4638],[16.1062,51.4681],[16.0994,51.4661],[16.0973,51.4679],[16.0988,51.4662],[16.084,51.4624],[16.0821,51.4568],[16.075,51.455],[16.073,51.453],[16.0714,51.4378],[16.0753,51.4359],[16.088,51.4166],[16.0989,51.418],[16.0994,51.4138],[16.1086,51.4005],[16.1073,51.3974],[16.102,51.3964],[16.0981,51.3837],[16.0695,51.3808],[16.0662,51.3766],[16.0688,51.3736],[16.0677,51.3711],[16.0799,51.3668],[16.0792,51.3632],[16.0716,51.3561],[16.0719,51.3505],[16.0781,51.3473],[16.0945,51.3466],[16.0799,51.3377],[16.0722,51.3363],[16.0477,51.3333],[16.0367,51.3376],[16.0266,51.3363],[16.0236,51.3312],[16.0138,51.3275],[16.0118,51.3298],[16.008,51.3263],[15.9973,51.329],[15.9844,51.3341],[15.9849,51.3371],[15.9717,51.3372],[15.9537,51.3435],[15.9478,51.3426],[15.9458,51.3375],[15.9374,51.3394],[15.9224,51.3445],[15.9267,51.3493],[15.9219,51.3534],[15.9131,51.3558],[15.9061,51.3634],[15.8937,51.3631],[15.8879,51.3714],[15.8761,51.3693],[15.8615,51.3733],[15.8503,51.3818],[15.8403,51.3836],[15.8404,51.387],[15.8488,51.3877],[15.8503,51.3901],[15.8445,51.3948],[15.8371,51.3949],[15.8282,51.4003],[15.8295,51.4042],[15.8162,51.4099],[15.8185,51.4185],[15.816,51.4296],[15.8193,51.4376],[15.8192,51.4442],[15.8222,51.4507],[15.8584,51.4566],[15.8459,51.4616],[15.8428,51.4648],[15.8454,51.4658],[15.8296,51.4758],[15.8246,51.4833],[15.8017,51.4889],[15.8015,51.4909],[15.8114,51.4925],[15.8075,51.5026],[15.7793,51.5024],[15.7793,51.5072],[15.767,51.5072],[15.767,51.5107],[15.7544,51.5131],[15.73,51.5123],[15.7251,51.5174],[15.714,51.5174]]]]}},{"type":"Feature","properties":{"Powiat":"szczecinecki","Urząd":"Starosta Szczecinecki","Pactum":"czyta wypisy (sprawdzone na prawdziwych plikach)","fill":"#d9541e","fill-opacity":0.65,"stroke":"#9a3412","stroke-width":1.5},"geometry":{"type":"MultiPolygon","coordinates":[[[[16.7928,53.9856],[16.7878,53.9802],[16.8061,53.981],[16.8043,53.9791],[16.8057,53.9775],[16.8072,53.9796],[16.8134,53.9792],[16.8132,53.9838],[16.8025,53.9872],[16.8072,53.9875],[16.8034,53.9943],[16.8126,53.9954],[16.815,53.9982],[16.8137,54.0018],[16.818,54.0009],[16.818,54.0037],[16.8151,54.0048],[16.8251,54.0042],[16.8286,53.9952],[16.8423,53.9979],[16.847,53.9839],[16.8546,53.9836],[16.8746,53.977],[16.8768,53.9715],[16.8746,53.9692],[16.88,53.9637],[16.8778,53.9606],[16.8796,53.9564],[16.876,53.9521],[16.8623,53.9509],[16.8618,53.9478],[16.8587,53.9469],[16.8725,53.9461],[16.8761,53.944],[16.8765,53.9402],[16.8806,53.9414],[16.9087,53.9253],[16.922,53.9254],[16.9245,53.9225],[16.9233,53.921],[16.9349,53.9142],[16.9506,53.9123],[16.9506,53.9095],[16.9552,53.9068],[16.962,53.9076],[16.9647,53.9046],[16.9821,53.9049],[16.9765,53.8796],[16.9706,53.8806],[16.9707,53.878],[16.9505,53.8792],[16.9547,53.8747],[16.9247,53.8747],[16.9118,53.8772],[16.9017,53.8771],[16.9017,53.8743],[16.8925,53.8788],[16.8958,53.8728],[16.8724,53.8687],[16.8715,53.8586],[16.8683,53.8544],[16.8608,53.8523],[16.87,53.8505],[16.8728,53.8428],[16.8716,53.8382],[16.8741,53.8362],[16.8685,53.8341],[16.8728,53.8296],[16.8762,53.8318],[16.8945,53.8233],[16.9104,53.8199],[16.9109,53.8162],[16.9075,53.8155],[16.9069,53.8131],[16.9104,53.8084],[16.9095,53.8018],[16.9181,53.7981],[16.9376,53.8019],[16.9403,53.8067],[16.9482,53.8052],[16.9307,53.7772],[16.9081,53.7679],[16.9007,53.761],[16.8577,53.7471],[16.8773,53.7191],[16.8757,53.7151],[16.8803,53.6884],[16.8922,53.6559],[16.8696,53.6477],[16.8665,53.6503],[16.8537,53.6387],[16.8553,53.6323],[16.8491,53.6272],[16.8408,53.6264],[16.8385,53.6284],[16.8402,53.6293],[16.8311,53.6346],[16.8261,53.6434],[16.8132,53.64],[16.8163,53.6339],[16.8138,53.6308],[16.7582,53.6241],[16.7629,53.6181],[16.7541,53.6107],[16.7495,53.6009],[16.7406,53.5988],[16.7439,53.596],[16.7426,53.591],[16.738,53.5885],[16.7399,53.5885],[16.7395,53.5837],[16.7464,53.5757],[16.7402,53.5668],[16.7356,53.5664],[16.7325,53.5689],[16.7278,53.5673],[16.7254,53.5606],[16.7272,53.5551],[16.7186,53.5438],[16.717,53.5336],[16.7298,53.5292],[16.7206,53.5262],[16.7219,53.5222],[16.7152,53.5205],[16.7104,53.5161],[16.7006,53.5148],[16.6954,53.5181],[16.6494,53.4859],[16.5844,53.4837],[16.5803,53.4787],[16.5322,53.4783],[16.4901,53.4703],[16.4823,53.4767],[16.4542,53.4885],[16.4579,53.4944],[16.447,53.5026],[16.4572,53.5084],[16.4451,53.5165],[16.4428,53.516],[16.4383,53.5258],[16.4104,53.5254],[16.4085,53.5299],[16.412,53.532],[16.411,53.5345],[16.414,53.5348],[16.4127,53.537],[16.4165,53.5416],[16.4143,53.5465],[16.4172,53.5507],[16.4069,53.5532],[16.4039,53.5615],[16.4011,53.5617],[16.3973,53.5577],[16.3789,53.5616],[16.3596,53.5542],[16.3397,53.5706],[16.3149,53.5696],[16.317,53.5738],[16.3152,53.5765],[16.3212,53.5813],[16.3033,53.5908],[16.3079,53.5998],[16.3049,53.6094],[16.2875,53.6076],[16.2901,53.6108],[16.2856,53.6124],[16.2776,53.6106],[16.2646,53.6158],[16.2629,53.6179],[16.2658,53.6197],[16.2772,53.6189],[16.2927,53.6238],[16.2931,53.6265],[16.3019,53.6305],[16.3012,53.6328],[16.2947,53.6343],[16.3022,53.6381],[16.2997,53.6379],[16.2952,53.6446],[16.2864,53.6442],[16.2872,53.648],[16.2816,53.6506],[16.2793,53.6564],[16.2793,53.66],[16.2823,53.6621],[16.2707,53.6654],[16.2668,53.6711],[16.2623,53.67],[16.2583,53.6732],[16.2543,53.6726],[16.2538,53.6757],[16.2484,53.6767],[16.2394,53.6831],[16.2337,53.6939],[16.2336,53.6939],[16.2337,53.6939],[16.2502,53.6951],[16.2479,53.6971],[16.2508,53.7015],[16.2485,53.7072],[16.256,53.7088],[16.259,53.7133],[16.2659,53.7167],[16.2642,53.7199],[16.2671,53.7208],[16.268,53.7241],[16.2456,53.7505],[16.2332,53.7506],[16.2153,53.7546],[16.2192,53.757],[16.2136,53.7594],[16.2144,53.7607],[16.226,53.7655],[16.2283,53.7722],[16.2326,53.7739],[16.2323,53.7776],[16.2254,53.7909],[16.2025,53.8028],[16.2054,53.8152],[16.2123,53.8179],[16.2105,53.8205],[16.1985,53.8212],[16.2005,53.8254],[16.2018,53.8268],[16.1971,53.8322],[16.2034,53.8356],[16.2075,53.8331],[16.2171,53.8407],[16.2551,53.8429],[16.2557,53.8494],[16.2613,53.8515],[16.2637,53.8569],[16.2709,53.8557],[16.2736,53.8589],[16.2661,53.8663],[16.2647,53.8709],[16.2798,53.8752],[16.2958,53.8735],[16.3024,53.8768],[16.3264,53.877],[16.338,53.8859],[16.3345,53.8889],[16.3411,53.9005],[16.3527,53.9107],[16.3619,53.9115],[16.3661,53.9168],[16.3867,53.9094],[16.4014,53.911],[16.4147,53.9086],[16.4278,53.9004],[16.4405,53.9042],[16.4491,53.9029],[16.4778,53.9098],[16.4993,53.9078],[16.525,53.9027],[16.5331,53.8978],[16.5351,53.8884],[16.5582,53.8941],[16.5768,53.8854],[16.5807,53.8879],[16.5804,53.8903],[16.5884,53.8918],[16.587,53.8961],[16.5944,53.8974],[16.5908,53.8992],[16.594,53.9039],[16.6158,53.9064],[16.6211,53.9006],[16.6341,53.8995],[16.6535,53.9029],[16.6521,53.9066],[16.6635,53.9092],[16.6725,53.9013],[16.6737,53.8966],[16.6807,53.8894],[16.6997,53.8919],[16.7215,53.8893],[16.7274,53.8917],[16.7331,53.8903],[16.7371,53.8937],[16.7362,53.8973],[16.7168,53.9048],[16.7171,53.9073],[16.71,53.9136],[16.7101,53.9188],[16.7273,53.9233],[16.7145,53.9386],[16.7111,53.9365],[16.6903,53.9499],[16.7189,53.9534],[16.732,53.9613],[16.7374,53.9581],[16.7623,53.9662],[16.7556,53.9723],[16.7558,53.9748],[16.7509,53.976],[16.7589,53.9775],[16.7592,53.9851],[16.7631,53.9854],[16.7583,53.9887],[16.7616,53.9894],[16.7606,53.9927],[16.7691,53.988],[16.7876,53.99],[16.7928,53.9856]]]]}},{"type":"Feature","properties":{"Powiat":"jaworski","Urząd":"Starosta Jaworski","Pactum":"czyta wypisy (sprawdzone na prawdziwych plikach)","fill":"#d9541e","fill-opacity":0.65,"stroke":"#9a3412","stroke-width":1.5},"geometry":{"type":"MultiPolygon","coordinates":[[[[16.2039,50.8857],[16.2003,50.8857],[16.2028,50.8805],[16.1976,50.8715],[16.1847,50.8653],[16.1602,50.8657],[16.148,50.8635],[16.1286,50.8545],[16.12,50.853],[16.103,50.8589],[16.1151,50.8599],[16.1214,50.8659],[16.1225,50.8707],[16.0676,50.8717],[16.0667,50.8735],[16.0741,50.8785],[16.0724,50.8791],[16.0741,50.8842],[16.0608,50.8859],[16.0505,50.8908],[16.0509,50.8944],[16.0592,50.8955],[16.059,50.9012],[16.0338,50.8963],[16.0364,50.902],[16.0476,50.9108],[16.0437,50.9133],[16.0385,50.9128],[16.0395,50.9095],[16.0355,50.9047],[16.0379,50.9048],[16.033,50.901],[16.0252,50.9015],[16.0273,50.9052],[16.0193,50.9088],[16.0181,50.9059],[16.0212,50.904],[16.0187,50.9038],[16.0179,50.9002],[16.0269,50.8963],[16.0201,50.8973],[16.0172,50.8929],[16.0096,50.8958],[16.0008,50.8956],[16.0005,50.8994],[15.9807,50.9014],[15.9701,50.8982],[15.9803,50.8953],[15.9714,50.8924],[15.962,50.8946],[15.9501,50.8963],[15.9475,50.8988],[15.9365,50.8952],[15.9342,50.8958],[15.9349,50.899],[15.9296,50.8985],[15.9323,50.9068],[15.9301,50.9071],[15.9306,50.9107],[15.9333,50.911],[15.9306,50.914],[15.9335,50.9171],[15.9311,50.9223],[15.9329,50.9236],[15.9438,50.9205],[15.9407,50.923],[15.9451,50.922],[15.9446,50.9246],[15.9526,50.9279],[15.9558,50.9339],[15.9536,50.9366],[15.9561,50.9367],[15.9605,50.9429],[15.9797,50.9514],[15.98,50.9537],[15.9774,50.9541],[15.9818,50.9658],[15.9858,50.9693],[15.9848,50.9714],[16.0014,50.9909],[15.984,50.9973],[15.9829,51.0032],[15.9783,51.008],[15.9821,51.0115],[15.9791,51.0152],[15.9798,51.0189],[15.9611,51.0277],[15.9512,51.0295],[15.9534,51.0314],[15.9426,51.0351],[15.9418,51.0424],[15.934,51.0431],[15.9367,51.0511],[15.9329,51.0612],[15.952,51.0702],[15.9565,51.0694],[15.9639,51.0741],[15.9713,51.0743],[15.975,51.0774],[15.9819,51.0713],[15.9903,51.0731],[15.9975,51.0795],[16.0107,51.0794],[16.0143,51.0822],[16.0258,51.1038],[16.0444,51.1076],[16.0475,51.1102],[16.0473,51.1153],[16.0675,51.1215],[16.0708,51.1118],[16.0699,51.106],[16.0926,51.0994],[16.1076,51.1109],[16.1251,51.108],[16.129,51.1115],[16.1341,51.1119],[16.1341,51.1212],[16.1371,51.1287],[16.1515,51.1317],[16.1525,51.1366],[16.1718,51.1331],[16.1734,51.1276],[16.1948,51.1227],[16.1934,51.1144],[16.1975,51.1108],[16.195,51.1053],[16.2083,51.106],[16.2096,51.109],[16.2165,51.1098],[16.2176,51.1147],[16.2233,51.1148],[16.2269,51.1119],[16.2254,51.1068],[16.2362,51.099],[16.2422,51.1064],[16.249,51.1094],[16.2687,51.1067],[16.2755,51.1142],[16.279,51.1131],[16.2786,51.1092],[16.2903,51.1091],[16.2935,51.1128],[16.3036,51.1153],[16.3122,51.1299],[16.3239,51.137],[16.3267,51.1448],[16.3406,51.1461],[16.3493,51.1495],[16.3563,51.1495],[16.3544,51.1451],[16.3642,51.1451],[16.3731,51.1405],[16.3727,51.1385],[16.3776,51.1382],[16.37,51.1357],[16.3863,51.1331],[16.3871,51.1289],[16.3986,51.1258],[16.4066,51.1251],[16.4086,51.1294],[16.4139,51.131],[16.4418,51.1261],[16.4498,51.1218],[16.4594,51.1113],[16.475,51.1059],[16.4713,51.0953],[16.4749,51.0957],[16.4759,51.0892],[16.4802,51.0859],[16.461,51.0807],[16.4505,51.0822],[16.4445,51.0774],[16.4372,51.0758],[16.4319,51.08],[16.4253,51.0798],[16.4242,51.0754],[16.4204,51.0746],[16.4188,51.0709],[16.4053,51.0708],[16.4038,51.0624],[16.3971,51.062],[16.3937,51.0579],[16.383,51.0635],[16.3746,51.0634],[16.3735,51.0733],[16.3545,51.0705],[16.3445,51.0654],[16.3466,51.0611],[16.3431,51.0562],[16.3317,51.0544],[16.336,51.0473],[16.3322,51.0463],[16.3429,51.0341],[16.3372,51.029],[16.3201,51.0234],[16.322,51.0161],[16.3199,51.0135],[16.2989,51.0192],[16.2893,51.0188],[16.2691,51.0121],[16.2651,51.0022],[16.2378,51.0081],[16.2369,51.0114],[16.2313,51.0143],[16.2234,51.015],[16.2176,51.0183],[16.1986,51.0167],[16.1955,51.0042],[16.2007,51.0032],[16.1999,51.0016],[16.2067,50.9973],[16.2025,50.9883],[16.2008,50.9763],[16.2035,50.9713],[16.1833,50.9644],[16.1778,50.964],[16.1762,50.9669],[16.1685,50.964],[16.1714,50.9609],[16.1595,50.9507],[16.162,50.9466],[16.1699,50.9452],[16.1776,50.936],[16.1751,50.9337],[16.1878,50.9195],[16.185,50.918],[16.1995,50.915],[16.2009,50.9058],[16.195,50.9019],[16.1945,50.8957],[16.2039,50.8857]]]]}}]}
